<?xml version="1.0" encoding="UTF-8"?>
<ndm xmlns:xsi="http://www.w3.org/2001/XMLSchema-instance" xsi:noNamespaceSchemaLocation="https://sanaregistry.org/r/ndmxml_unqualified/ndmxml-2.0.0-master-2.0.xsd">
<omm id="CCSDS_OMM_VERS" version="2.0">
<header><CREATION_DATE/><ORIGINATOR/></header><body><segment><metadata><OBJECT_NAME>ORBCOMM FM05</OBJECT_NAME><OBJECT_ID>1997-084F</OBJECT_ID><CENTER_NAME>EARTH</CENTER_NAME><REF_FRAME>TEME</REF_FRAME><TIME_SYSTEM>UTC</TIME_SYSTEM><MEAN_ELEMENT_THEORY>SGP4</MEAN_ELEMENT_THEORY></metadata><data><meanElements><EPOCH>2025-03-24T05:23:15.059040</EPOCH><MEAN_MOTION>14.45506819</MEAN_MOTION><ECCENTRICITY>.0000615</ECCENTRICITY><INCLINATION>45.0142</INCLINATION><RA_OF_ASC_NODE>55.8847</RA_OF_ASC_NODE><ARG_OF_PERICENTER>235.2081</ARG_OF_PERICENTER><MEAN_ANOMALY>124.8713</MEAN_ANOMALY></meanElements><tleParameters><EPHEMERIS_TYPE>0</EPHEMERIS_TYPE><CLASSIFICATION_TYPE>U</CLASSIFICATION_TYPE><NORAD_CAT_ID>25117</NORAD_CAT_ID><ELEMENT_SET_NO>999</ELEMENT_SET_NO><REV_AT_EPOCH>42925</REV_AT_EPOCH><BSTAR>.16529E-2</BSTAR><MEAN_MOTION_DOT>.5745E-4</MEAN_MOTION_DOT><MEAN_MOTION_DDOT>0</MEAN_MOTION_DDOT></tleParameters></data></segment></body></omm>
<omm id="CCSDS_OMM_VERS" version="2.0">
<header><CREATION_DATE/><ORIGINATOR/></header><body><segment><metadata><OBJECT_NAME>ORBCOMM FM06</OBJECT_NAME><OBJECT_ID>1997-084G</OBJECT_ID><CENTER_NAME>EARTH</CENTER_NAME><REF_FRAME>TEME</REF_FRAME><TIME_SYSTEM>UTC</TIME_SYSTEM><MEAN_ELEMENT_THEORY>SGP4</MEAN_ELEMENT_THEORY></metadata><data><meanElements><EPOCH>2025-03-24T07:42:30.536928</EPOCH><MEAN_MOTION>14.45653801</MEAN_MOTION><ECCENTRICITY>.0001208</ECCENTRICITY><INCLINATION>45.0134</INCLINATION><RA_OF_ASC_NODE>55.2529</RA_OF_ASC_NODE><ARG_OF_PERICENTER>293.0988</ARG_OF_PERICENTER><MEAN_ANOMALY>211.3776</MEAN_ANOMALY></meanElements><tleParameters><EPHEMERIS_TYPE>0</EPHEMERIS_TYPE><CLASSIFICATION_TYPE>U</CLASSIFICATION_TYPE><NORAD_CAT_ID>25118</NORAD_CAT_ID><ELEMENT_SET_NO>999</ELEMENT_SET_NO><REV_AT_EPOCH>42924</REV_AT_EPOCH><BSTAR>.14526E-2</BSTAR><MEAN_MOTION_DOT>.5046E-4</MEAN_MOTION_DOT><MEAN_MOTION_DDOT>0</MEAN_MOTION_DDOT></tleParameters></data></segment></body></omm>
<omm id="CCSDS_OMM_VERS" version="2.0">
<header><CREATION_DATE/><ORIGINATOR/></header><body><segment><metadata><OBJECT_NAME>ORBCOMM FM07</OBJECT_NAME><OBJECT_ID>1997-084H</OBJECT_ID><CENTER_NAME>EARTH</CENTER_NAME><REF_FRAME>TEME</REF_FRAME><TIME_SYSTEM>UTC</TIME_SYSTEM><MEAN_ELEMENT_THEORY>SGP4</MEAN_ELEMENT_THEORY></metadata><data><meanElements><EPOCH>2025-03-24T07:20:43.063872</EPOCH><MEAN_MOTION>14.45621451</MEAN_MOTION><ECCENTRICITY>.0000755</ECCENTRICITY><INCLINATION>45.0129</INCLINATION><RA_OF_ASC_NODE>56.0881</RA_OF_ASC_NODE><ARG_OF_PERICENTER>163.9564</ARG_OF_PERICENTER><MEAN_ANOMALY>196.1312</MEAN_ANOMALY></meanElements><tleParameters><EPHEMERIS_TYPE>0</EPHEMERIS_TYPE><CLASSIFICATION_TYPE>U</CLASSIFICATION_TYPE><NORAD_CAT_ID>25119</NORAD_CAT_ID><ELEMENT_SET_NO>999</ELEMENT_SET_NO><REV_AT_EPOCH>42923</REV_AT_EPOCH><BSTAR>.14764E-2</BSTAR><MEAN_MOTION_DOT>.5128E-4</MEAN_MOTION_DOT><MEAN_MOTION_DDOT>0</MEAN_MOTION_DDOT></tleParameters></data></segment></body></omm>
<omm id="CCSDS_OMM_VERS" version="2.0">
<header><CREATION_DATE/><ORIGINATOR/></header><body><segment><metadata><OBJECT_NAME>ORBCOMM FM03</OBJECT_NAME><OBJECT_ID>1998-007B</OBJECT_ID><CENTER_NAME>EARTH</CENTER_NAME><REF_FRAME>TEME</REF_FRAME><TIME_SYSTEM>UTC</TIME_SYSTEM><MEAN_ELEMENT_THEORY>SGP4</MEAN_ELEMENT_THEORY></metadata><data><meanElements><EPOCH>2025-03-24T14:23:50.420832</EPOCH><MEAN_MOTION>14.34198043</MEAN_MOTION><ECCENTRICITY>.004471</ECCENTRICITY><INCLINATION>107.9682</INCLINATION><RA_OF_ASC_NODE>321.8802</RA_OF_ASC_NODE><ARG_OF_PERICENTER>34.8435</ARG_OF_PERICENTER><MEAN_ANOMALY>325.5618</MEAN_ANOMALY></meanElements><tleParameters><EPHEMERIS_TYPE>0</EPHEMERIS_TYPE><CLASSIFICATION_TYPE>U</CLASSIFICATION_TYPE><NORAD_CAT_ID>25158</NORAD_CAT_ID><ELEMENT_SET_NO>999</ELEMENT_SET_NO><REV_AT_EPOCH>41191</REV_AT_EPOCH><BSTAR>.12574E-2</BSTAR><MEAN_MOTION_DOT>.344E-4</MEAN_MOTION_DOT><MEAN_MOTION_DDOT>0</MEAN_MOTION_DDOT></tleParameters></data></segment></body></omm>
<omm id="CCSDS_OMM_VERS" version="2.0">
<header><CREATION_DATE/><ORIGINATOR/></header><body><segment><metadata><OBJECT_NAME>ORBCOMM FM04</OBJECT_NAME><OBJECT_ID>1998-007C</OBJECT_ID><CENTER_NAME>EARTH</CENTER_NAME><REF_FRAME>TEME</REF_FRAME><TIME_SYSTEM>UTC</TIME_SYSTEM><MEAN_ELEMENT_THEORY>SGP4</MEAN_ELEMENT_THEORY></metadata><data><meanElements><EPOCH>2025-03-24T14:22:30.773856</EPOCH><MEAN_MOTION>14.34453126</MEAN_MOTION><ECCENTRICITY>.0040554</ECCENTRICITY><INCLINATION>107.9663</INCLINATION><RA_OF_ASC_NODE>325.0418</RA_OF_ASC_NODE><ARG_OF_PERICENTER>32.0326</ARG_OF_PERICENTER><MEAN_ANOMALY>328.3267</MEAN_ANOMALY></meanElements><tleParameters><EPHEMERIS_TYPE>0</EPHEMERIS_TYPE><CLASSIFICATION_TYPE>U</CLASSIFICATION_TYPE><NORAD_CAT_ID>25159</NORAD_CAT_ID><ELEMENT_SET_NO>999</ELEMENT_SET_NO><REV_AT_EPOCH>41209</REV_AT_EPOCH><BSTAR>.11233E-2</BSTAR><MEAN_MOTION_DOT>.3069E-4</MEAN_MOTION_DOT><MEAN_MOTION_DDOT>0</MEAN_MOTION_DDOT></tleParameters></data></segment></body></omm>
<omm id="CCSDS_OMM_VERS" version="2.0">
<header><CREATION_DATE/><ORIGINATOR/></header><body><segment><metadata><OBJECT_NAME>ORBCOMM FM17</OBJECT_NAME><OBJECT_ID>1998-046A</OBJECT_ID><CENTER_NAME>EARTH</CENTER_NAME><REF_FRAME>TEME</REF_FRAME><TIME_SYSTEM>UTC</TIME_SYSTEM><MEAN_ELEMENT_THEORY>SGP4</MEAN_ELEMENT_THEORY></metadata><data><meanElements><EPOCH>2025-03-24T14:27:51.297120</EPOCH><MEAN_MOTION>14.34855503</MEAN_MOTION><ECCENTRICITY>.0002732</ECCENTRICITY><INCLINATION>44.9941</INCLINATION><RA_OF_ASC_NODE>296.7435</RA_OF_ASC_NODE><ARG_OF_PERICENTER>138.6505</ARG_OF_PERICENTER><MEAN_ANOMALY>221.4549</MEAN_ANOMALY></meanElements><tleParameters><EPHEMERIS_TYPE>0</EPHEMERIS_TYPE><CLASSIFICATION_TYPE>U</CLASSIFICATION_TYPE><NORAD_CAT_ID>25413</NORAD_CAT_ID><ELEMENT_SET_NO>999</ELEMENT_SET_NO><REV_AT_EPOCH>39102</REV_AT_EPOCH><BSTAR>.10838E-2</BSTAR><MEAN_MOTION_DOT>.2966E-4</MEAN_MOTION_DOT><MEAN_MOTION_DDOT>0</MEAN_MOTION_DDOT></tleParameters></data></segment></body></omm>
<omm id="CCSDS_OMM_VERS" version="2.0">
<header><CREATION_DATE/><ORIGINATOR/></header><body><segment><metadata><OBJECT_NAME>ORBCOMM FM18</OBJECT_NAME><OBJECT_ID>1998-046B</OBJECT_ID><CENTER_NAME>EARTH</CENTER_NAME><REF_FRAME>TEME</REF_FRAME><TIME_SYSTEM>UTC</TIME_SYSTEM><MEAN_ELEMENT_THEORY>SGP4</MEAN_ELEMENT_THEORY></metadata><data><meanElements><EPOCH>2025-03-24T18:09:05.990112</EPOCH><MEAN_MOTION>14.38215613</MEAN_MOTION><ECCENTRICITY>.000614</ECCENTRICITY><INCLINATION>44.9914</INCLINATION><RA_OF_ASC_NODE>215.6438</RA_OF_ASC_NODE><ARG_OF_PERICENTER>213.7031</ARG_OF_PERICENTER><MEAN_ANOMALY>146.3427</MEAN_ANOMALY></meanElements><tleParameters><EPHEMERIS_TYPE>0</EPHEMERIS_TYPE><CLASSIFICATION_TYPE>U</CLASSIFICATION_TYPE><NORAD_CAT_ID>25414</NORAD_CAT_ID><ELEMENT_SET_NO>999</ELEMENT_SET_NO><REV_AT_EPOCH>39226</REV_AT_EPOCH><BSTAR>.15824E-2</BSTAR><MEAN_MOTION_DOT>.4714E-4</MEAN_MOTION_DOT><MEAN_MOTION_DDOT>0</MEAN_MOTION_DDOT></tleParameters></data></segment></body></omm>
<omm id="CCSDS_OMM_VERS" version="2.0">
<header><CREATION_DATE/><ORIGINATOR/></header><body><segment><metadata><OBJECT_NAME>ORBCOMM FM19</OBJECT_NAME><OBJECT_ID>1998-046C</OBJECT_ID><CENTER_NAME>EARTH</CENTER_NAME><REF_FRAME>TEME</REF_FRAME><TIME_SYSTEM>UTC</TIME_SYSTEM><MEAN_ELEMENT_THEORY>SGP4</MEAN_ELEMENT_THEORY></metadata><data><meanElements><EPOCH>2025-03-24T15:00:27.304128</EPOCH><MEAN_MOTION>14.38019334</MEAN_MOTION><ECCENTRICITY>.0004913</ECCENTRICITY><INCLINATION>44.9924</INCLINATION><RA_OF_ASC_NODE>218.1315</RA_OF_ASC_NODE><ARG_OF_PERICENTER>207.0246</ARG_OF_PERICENTER><MEAN_ANOMALY>168.4837</MEAN_ANOMALY></meanElements><tleParameters><EPHEMERIS_TYPE>0</EPHEMERIS_TYPE><CLASSIFICATION_TYPE>U</CLASSIFICATION_TYPE><NORAD_CAT_ID>25415</NORAD_CAT_ID><ELEMENT_SET_NO>999</ELEMENT_SET_NO><REV_AT_EPOCH>39203</REV_AT_EPOCH><BSTAR>.15239E-2</BSTAR><MEAN_MOTION_DOT>.4515E-4</MEAN_MOTION_DOT><MEAN_MOTION_DDOT>0</MEAN_MOTION_DDOT></tleParameters></data></segment></body></omm>

</ndm>
