ORBCOMM FM05            
1 25117U 97084F   25083.22447985  .00005745  00000+0  16529-2 0  9998
2 25117  45.0142  55.8847 0000615 235.2081 124.8713 14.45506819429255
ORBCOMM FM06            
1 25118U 97084G   25083.32118677  .00005046  00000+0  14526-2 0  9992
2 25118  45.0134  55.2529 0001208 293.0988 211.3776 14.45653801429249
ORBCOMM FM07            
1 25119U 97084H   25083.30605398  .00005128  00000+0  14764-2 0  9997
2 25119  45.0129  56.0881 0000755 163.9564 196.1312 14.45621451429236
ORBCOMM FM03            
1 25158U 98007B   25083.59988913  .00003440  00000+0  12574-2 0  9996
2 25158 107.9682 321.8802 0044710  34.8435 325.5618 14.34198043411916
ORBCOMM FM04            
1 25159U 98007C   25083.59896729  .00003069  00000+0  11233-2 0  9998
2 25159 107.9663 325.0418 0040554  32.0326 328.3267 14.34453126412093
ORBCOMM FM17            
1 25413U 98046A   25083.60267705  .00002966  00000+0  10838-2 0  9997
2 25413  44.9941 296.7435 0002732 138.6505 221.4549 14.34855503391026
ORBCOMM FM18            
1 25414U 98046B   25083.75631933  .00004714  00000+0  15824-2 0  9995
2 25414  44.9914 215.6438 0006140 213.7031 146.3427 14.38215613392269
ORBCOMM FM19            
1 25415U 98046C   25083.62531602  .00004515  00000+0  15239-2 0  9993
2 25415  44.9924 218.1315 0004913 207.0246 168.4837 14.38019334392030
